NORAD_CAT_ID,OBJECT_NAME,OBJECT_TYPE,EPOCH,MEAN_MOTION,ECCENTRICITY,INCLINATION,RA_OF_ASC_NODE,ARG_OF_PERICENTER,MEAN_ANOMALY,BSTAR,MEAN_MOTION_DOT,MEAN_MOTION_DDOT,TLE_LINE0,TLE_LINE1,TLE_LINE2,SEMIMAJOR_AXIS,PERIOD,APOGEE,PERIGEE,DECAYED
56492.0,STARLINK-5846,PAYLOAD,2024-08-10 21:19:03,14.98329414,0.0002489,70.0009,116.2332,254.2922,105.7963,7.182e-05,7.64e-06,0.0,0 STARLINK-5846,1 56492U 23064AW  24223.88823769  .00000764  00000-0  71820-4 0  9994,2 56492  70.0009 116.2332 0002489 254.2922 105.7963 14.98329414 70341,6950.195,96.107,573.79,570.33,0.0
56492.0,STARLINK-5846,PAYLOAD,2024-08-10 22:55:11,14.98328081,0.0002385,70.0014,116.0652,243.9716,116.1198,0.00010021,1.103e-05,0.0,0 STARLINK-5846,1 56492U 23064AW  24223.95499804  .00001103  00000-0  10021-3 0  9994,2 56492  70.0014 116.0652 0002385 243.9716 116.1198 14.98328081 69995,6950.199,96.107,573.721,570.406,0.0
56492.0,STARLINK-5846,PAYLOAD,2024-08-11 03:43:35,14.98339845,0.0002611,70.0009,115.5588,265.8587,94.2274,0.00017827,2.035e-05,0.0,0 STARLINK-5846,1 56492U 23064AW  24224.15527029  .00002035  00000-0  17827-3 0  9994,2 56492  70.0009 115.5588 0002611 265.8587  94.2274 14.98339845 70388,6950.162,96.106,573.842,570.213,0.0
56492.0,STARLINK-5846,PAYLOAD,2024-08-11 22:57:12,14.98335426,0.0002248,70.0016,113.5397,248.7338,111.3582,0.00020367,2.338e-05,0.0,0 STARLINK-5846,1 56492U 23064AW  24224.95639252  .00002338  00000-0  20367-3 0  9993,2 56492  70.0016 113.5397 0002248 248.7338 111.3582 14.98335426 70140,6950.176,96.107,573.604,570.479,0.0
56492.0,STARLINK-5846,PAYLOAD,2024-08-12 03:45:36,14.98336798,0.0002376,70.0003,113.0327,245.6676,114.4235,0.00019692,2.258e-05,0.0,0 STARLINK-5846,1 56492U 23064AW  24225.15666975  .00002258  00000-0  19692-3 0  9998,2 56492  70.0003 113.0327 0002376 245.6676 114.4235 14.98336798 70532,6950.172,96.107,573.688,570.386,0.0
56492.0,STARLINK-5846,PAYLOAD,2024-08-12 10:10:08,14.98338656,0.000249,70.0023,112.3576,261.8584,98.2293,0.00016369,1.861e-05,0.0,0 STARLINK-5846,1 56492U 23064AW  24225.42370852  .00001861  00000-0  16369-3 0  9991,2 56492  70.0023 112.3576 0002490 261.8584  98.2293 14.98338656 70210,6950.166,96.106,573.762,570.301,0.0
56492.0,STARLINK-5846,PAYLOAD,2024-08-12 22:59:11,14.98371969,0.0002826,70.0008,111.0139,266.9028,93.1808,0.00077617,9.19e-05,0.0,0 STARLINK-5846,1 56492U 23064AW  24225.95777114  .00009190  00000-0  77617-3 0  9997,2 56492  70.0008 111.0139 0002826 266.9028  93.1808 14.98371969 70294,6950.063,96.104,573.892,569.964,0.0
56492.0,STARLINK-5846,PAYLOAD,2024-08-13 02:11:27,14.98357707,0.0002897,70.0006,110.6771,269.2402,90.8425,0.00046079,5.413e-05,0.0,0 STARLINK-5846,1 56492U 23064AW  24226.09129556  .00005413  00000-0  46079-3 0  9996,2 56492  70.0006 110.6771 0002897 269.2402  90.8425 14.98357707 70674,6950.107,96.105,573.986,569.959,0.0
56492.0,STARLINK-5846,PAYLOAD,2024-08-13 10:12:10,14.98317658,0.0002533,70.0022,109.8349,279.2769,80.8103,-0.00032216,-3.933e-05,0.0,0 STARLINK-5846,1 56492U 23064AW  24226.42511754 -.00003933  00000-0 -32216-3 0  9993,2 56492  70.0022 109.8349 0002533 279.2769  80.8103 14.98317658 70726,6950.231,96.108,573.857,570.336,0.0
56492.0,STARLINK-5846,PAYLOAD,2024-08-13 23:01:16,14.98286462,0.0003045,70.0012,108.4889,275.5662,84.515,-0.00092937,-0.00011152,0.0,0 STARLINK-5846,1 56492U 23064AW  24226.95922235 -.00011152  00000-0 -92937-3 0  9999,2 56492  70.0012 108.4889 0003045 275.5662  84.5150 14.98286462 70449,6950.328,96.11,574.309,570.076,0.0
56492.0,STARLINK-5846,PAYLOAD,2024-08-14 02:13:32,14.9830944,0.0002962,70.001,108.1524,273.2481,86.8339,-0.00041798,-5.074e-05,0.0,0 STARLINK-5846,1 56492U 23064AW  24227.09273406 -.00005074  00000-0 -41798-3 0  9999,2 56492  70.0010 108.1524 0002962 273.2481  86.8339 14.98309440 70829,6950.256,96.108,574.18,570.063,0.0
56492.0,STARLINK-5846,PAYLOAD,2024-08-14 19:50:59,14.98336554,0.0002661,70.0021,106.2977,277.9556,82.13,0.0002962,3.444e-05,0.0,0 STARLINK-5846,1 56492U 23064AW  24227.82708312  .00003444  00000-0  29620-3 0  9996,2 56492  70.0021 106.2977 0002661 277.9556  82.1300 14.98336554 70937,6950.173,96.107,573.887,570.188,0.0
56492.0,STARLINK-5846,PAYLOAD,2024-08-14 23:03:15,14.98354008,0.0003358,70.0002,105.9643,278.0107,82.067,0.00045738,5.372e-05,0.0,0 STARLINK-5846,1 56492U 23064AW  24227.96059327  .00005372  00000-0  45738-3 0  9996,2 56492  70.0002 105.9643 0003358 278.0107  82.0670 14.98354008 70595,6950.119,96.105,574.317,569.65,0.0
56492.0,STARLINK-5846,PAYLOAD,2024-08-15 02:15:30,14.98363232,0.0003215,69.999,105.6273,276.9179,83.1614,0.00023267,2.687e-05,0.0,0 STARLINK-5846,1 56492U 23064AW  24228.09409768  .00002687  00000-0  23267-3 0  9998,2 56492  69.9990 105.6273 0003215 276.9179  83.1614 14.98363232 70973,6950.09,96.105,574.19,569.721,0.0
56492.0,STARLINK-5846,PAYLOAD,2024-08-15 08:40:01,14.98375703,0.0003367,69.9993,104.9527,279.0989,80.9789,-0.00034302,-4.188e-05,0.0,0 STARLINK-5846,1 56492U 23064AW  24228.36113290 -.00004188  00000-0 -34302-3 0  9992,2 56492  69.9993 104.9527 0003367 279.0989  80.9789 14.98375703 70650,6950.052,96.104,574.257,569.576,0.0
56492.0,STARLINK-5846,PAYLOAD,2024-08-15 21:29:08,14.98322429,0.0002881,70.0007,103.6107,280.2266,79.8568,0.00053465,6.291e-05,0.0,0 STARLINK-5846,1 56492U 23064AW  24228.89523893  .00006291  00000-0  53465-3 0  9990,2 56492  70.0007 103.6107 0002881 280.2266  79.8568 14.98322429 71099,6950.216,96.107,574.084,570.079,0.0
56492.0,STARLINK-5846,PAYLOAD,2024-08-16 02:17:32,14.98328514,0.0002912,69.9995,103.1064,265.449,94.6336,0.00033283,3.88e-05,0.0,0 STARLINK-5846,1 56492U 23064AW  24229.09552037  .00003880  00000-0  33283-3 0  9992,2 56492  69.9995 103.1064 0002912 265.4490  94.6336 14.98328514 70760,6950.197,96.107,574.086,570.039,0.0
56492.0,STARLINK-5846,PAYLOAD,2024-08-16 21:31:09,14.98345303,0.0002912,69.9998,101.0844,274.0647,86.0179,-0.00016321,-2.041e-05,0.0,0 STARLINK-5846,1 56492U 23064AW  24229.89663581 -.00002041  00000-0 -16321-3 0  9991,2 56492  69.9998 101.0844 0002912 274.0647  86.0179 14.98345303 70884,6950.146,96.106,574.034,569.987,0.0
56492.0,STARLINK-5846,PAYLOAD,2024-08-17 02:19:33,14.98346592,0.0002735,70.0002,100.5804,270.1391,89.9454,-0.00014196,-1.787e-05,0.0,0 STARLINK-5846,1 56492U 23064AW  24230.09691243 -.00001787  00000-0 -14196-3 0  9995,2 56492  70.0002 100.5804 0002735 270.1391  89.9454 14.98346592 71272,6950.142,96.106,573.907,570.106,0.0
56492.0,STARLINK-5846,PAYLOAD,2024-08-18 00:45:27,14.98328897,0.0002752,70.0021,98.219,312.2851,47.8075,-1.069e-05,-2.2e-06,0.0,0 STARLINK-5846,1 56492U 23064AW  24231.03156262 -.00000220  00000-0 -10690-4 0  9994,2 56492  70.0021  98.2190 0002752 312.2851  47.8075 14.98328897 71418,6950.196,96.107,573.974,570.149,0.0
56492.0,STARLINK-5846,PAYLOAD,2024-08-18 21:35:10,14.9833146,0.0002927,69.9998,96.0325,262.5029,97.5797,9.741e-05,1.07e-05,0.0,0 STARLINK-5846,1 56492U 23064AW  24231.89943102  .00001070  00000-0  97410-4 0  9992,2 56492  69.9998  96.0325 0002927 262.5029  97.5797 14.98331460 71189,6950.188,96.107,574.088,570.019,0.0
56492.0,STARLINK-5846,PAYLOAD,2024-08-19 00:47:26,14.98332394,0.0002956,69.9997,95.6956,264.6564,95.4258,0.00010111,1.114e-05,0.0,0 STARLINK-5846,1 56492U 23064AW  24232.03295039  .00001114  00000-0  10111-3 0  9999,2 56492  69.9997  95.6956 0002956 264.6564  95.4258 14.98332394 71560,6950.185,96.107,574.105,569.996,0.0
56492.0,STARLINK-5846,PAYLOAD,2024-08-19 08:48:07,14.98330335,0.0002968,69.9997,94.853,270.0701,90.0118,6.9012e-05,7.31e-06,0.0,0 STARLINK-5846,1 56492U 23064AW  24232.36675254  .00000731  00000-0  69012-4 0  9995,2 56492  69.9997  94.8530 0002968 270.0701  90.0118 14.98330335 71251,6950.192,96.107,574.12,569.994,0.0
56492.0,STARLINK-5846,PAYLOAD,2024-08-20 00:49:28,14.9832776,0.000303,69.9995,93.1703,270.985,89.0962,2.1956e-05,1.69e-06,0.0,0 STARLINK-5846,1 56492U 23064AW  24233.03435625  .00000169  00000-0  21956-4 0  9996,2 56492  69.9995  93.1703 0003030 270.9850  89.0962 14.98327760 71712,6950.2,96.107,574.171,569.959,0.0
56492.0,STARLINK-5846,PAYLOAD,2024-08-20 20:03:04,14.98335255,0.0003169,69.999,91.1508,271.236,88.8436,4.3714e-05,4.29e-06,0.0,0 STARLINK-5846,1 56492U 23064AW  24233.83547008  .00000429  00000-0  43714-4 0  9998,2 56492  69.9990  91.1508 0003169 271.2360  88.8436 14.98335255 71835,6950.177,96.107,574.244,569.839,0.0
56492.0,STARLINK-5846,PAYLOAD,2024-08-21 15:16:41,14.98326255,0.0002883,69.9995,89.1309,273.5115,86.5714,3.8449e-05,3.66e-06,0.0,0 STARLINK-5846,1 56492U 23064AW  24234.63659568  .00000366  00000-0  38449-4 0  9991,2 56492  69.9995  89.1309 0002883 273.5115  86.5714 14.98326255 71598,6950.204,96.107,574.073,570.066,0.0
56492.0,STARLINK-5846,PAYLOAD,2024-08-21 20:05:06,14.98325378,0.0002926,69.9993,88.6258,272.7163,87.3661,2.4394e-05,1.98e-06,0.0,0 STARLINK-5846,1 56492U 23064AW  24234.83687680  .00000198  00000-0  24394-4 0  9996,2 56492  69.9993  88.6258 0002926 272.7163  87.3661 14.98325378 71983,6950.207,96.107,574.106,570.039,0.0
